{
  "norad_id": 54007,
  "name": "STARLINK-5132",
  "history": [
    {
      "epoch": "2026-03-28T13:00:27.721728Z",
      "apogee_km": 540.6346460627165,
      "perigee_km": 538.6686105345543,
      "latitude_deg": 1.6697073750310305e-05,
      "longitude_deg": 108.05876215250703,
      "height_km": 540.4315945561247,
      "semi_major_axis_km": 6917.788628298636,
      "eccentricity": 0.0001421,
      "inclination_deg": 53.2151,
      "raan_deg": 129.1352,
      "arg_perigee_deg": 83.2562,
      "mean_anomaly_deg": 276.8592,
      "mean_motion_rev_day": 15.08870021
    },
    {
      "epoch": "2026-03-30T01:34:19.447968Z",
      "apogee_km": 540.2765032329253,
      "perigee_km": 539.1174893251873,
      "latitude_deg": -2.72410913317755e-06,
      "longitude_deg": -88.7489231350851,
      "height_km": 540.4489385281831,
      "semi_major_axis_km": 6917.833996279056,
      "eccentricity": 8.377e-05,
      "inclination_deg": 53.214,
      "raan_deg": 122.2947,
      "arg_perigee_deg": 75.5966,
      "mean_anomaly_deg": 284.5119,
      "mean_motion_rev_day": 15.08855178
    },
    {
      "epoch": "2026-03-30T11:06:38.803968Z",
      "apogee_km": 540.6622026278428,
      "perigee_km": 538.8595368009528,
      "latitude_deg": -1.0539753930882304e-05,
      "longitude_deg": 125.99698061280787,
      "height_km": 540.7112707183493,
      "semi_major_axis_km": 6917.8978697143975,
      "eccentricity": 0.00013029,
      "inclination_deg": 53.2146,
      "raan_deg": 120.513,
      "arg_perigee_deg": 93.4928,
      "mean_anomaly_deg": 266.6213,
      "mean_motion_rev_day": 15.08834281
    },
    {
      "epoch": "2026-03-30T19:03:34.918560Z",
      "apogee_km": 540.7418409312322,
      "perigee_km": 538.8169998664198,
      "latitude_deg": 4.037435880676e-05,
      "longitude_deg": 4.9509574812296435,
      "height_km": 540.6868847765745,
      "semi_major_axis_km": 6917.916420398826,
      "eccentricity": 0.00013912,
      "inclination_deg": 53.2145,
      "raan_deg": 119.0272,
      "arg_perigee_deg": 90.7216,
      "mean_anomaly_deg": 269.3936,
      "mean_motion_rev_day": 15.08828212
    },
    {
      "epoch": "2026-03-31T10:57:27.068256Z",
      "apogee_km": 540.7272680855813,
      "perigee_km": 538.8248419954452,
      "latitude_deg": -3.10478498930257e-05,
      "longitude_deg": 122.85391460940802,
      "height_km": 540.6172789842825,
      "semi_major_axis_km": 6917.913055040513,
      "eccentricity": 0.0001375,
      "inclination_deg": 53.2147,
      "raan_deg": 116.0504,
      "arg_perigee_deg": 86.7348,
      "mean_anomaly_deg": 273.3801,
      "mean_motion_rev_day": 15.08829313
    },
    {
      "epoch": "2026-04-01T18:45:10.641888Z",
      "apogee_km": 540.7085650790059,
      "perigee_km": 538.8296617785991,
      "latitude_deg": 3.9578737658759873e-05,
      "longitude_deg": -1.331080150015838,
      "height_km": 540.6183038679176,
      "semi_major_axis_km": 6917.906113428802,
      "eccentricity": 0.0001358,
      "inclination_deg": 53.2148,
      "raan_deg": 110.1027,
      "arg_perigee_deg": 87.179,
      "mean_anomaly_deg": 272.9358,
      "mean_motion_rev_day": 15.08831584
    },
    {
      "epoch": "2026-04-02T10:39:00.400896Z",
      "apogee_km": 540.5164376119346,
      "perigee_km": 538.7593227923635,
      "latitude_deg": 1.0152314349202203e-05,
      "longitude_deg": 116.5846963796858,
      "height_km": 540.4446730483191,
      "semi_major_axis_km": 6917.774880202149,
      "eccentricity": 0.000127,
      "inclination_deg": 53.2146,
      "raan_deg": 107.1287,
      "arg_perigee_deg": 84.2014,
      "mean_anomaly_deg": 275.9123,
      "mean_motion_rev_day": 15.08874519
    },
    {
      "epoch": "2026-04-03T07:19:01.711488Z",
      "apogee_km": 540.5037282902858,
      "perigee_km": 538.9555097409493,
      "latitude_deg": -3.1019384425291713e-06,
      "longitude_deg": 161.86346129719334,
      "height_km": 540.4810253608279,
      "semi_major_axis_km": 6917.866619015617,
      "eccentricity": 0.0001119,
      "inclination_deg": 53.2146,
      "raan_deg": 103.2617,
      "arg_perigee_deg": 79.252,
      "mean_anomaly_deg": 280.8598,
      "mean_motion_rev_day": 15.08844505
    },
    {
      "epoch": "2026-04-04T10:20:36.240864Z",
      "apogee_km": 540.563965092515,
      "perigee_km": 538.9184785786692,
      "latitude_deg": 1.598151057980378e-05,
      "longitude_deg": 110.30637364183796,
      "height_km": 540.5610165623751,
      "semi_major_axis_km": 6917.878221835592,
      "eccentricity": 0.00011893,
      "inclination_deg": 53.2166,
      "raan_deg": 98.2084,
      "arg_perigee_deg": 84.6951,
      "mean_anomaly_deg": 275.4177,
      "mean_motion_rev_day": 15.08840709
    },
    {
      "epoch": "2026-04-05T07:00:37.732032Z",
      "apogee_km": 540.7280889076401,
      "perigee_km": 538.8657810923387,
      "latitude_deg": 3.720404565987634e-05,
      "longitude_deg": 155.58620830568563,
      "height_km": 540.789558417464,
      "semi_major_axis_km": 6917.933934999989,
      "eccentricity": 0.0001346,
      "inclination_deg": 53.2165,
      "raan_deg": 94.3432,
      "arg_perigee_deg": 95.9793,
      "mean_anomaly_deg": 264.1353,
      "mean_motion_rev_day": 15.08822482
    },
    {
      "epoch": "2026-04-06T05:16:02.114688Z",
      "apogee_km": 540.6758621796489,
      "perigee_km": 538.9001691866233,
      "latitude_deg": 1.3311644390682307e-05,
      "longitude_deg": 176.6567411420452,
      "height_km": 540.7461827168295,
      "semi_major_axis_km": 6917.925015683136,
      "eccentricity": 0.00012834,
      "inclination_deg": 53.2167,
      "raan_deg": 90.1794,
      "arg_perigee_deg": 94.0324,
      "mean_anomaly_deg": 266.0815,
      "mean_motion_rev_day": 15.088254
    },
    {
      "epoch": "2026-04-07T03:31:26.182848Z",
      "apogee_km": 540.6491370884605,
      "perigee_km": 538.8789845650163,
      "latitude_deg": 2.6306538358353535e-05,
      "longitude_deg": -162.271385161025,
      "height_km": 540.6843935685787,
      "semi_major_axis_km": 6917.901060826738,
      "eccentricity": 0.00012794,
      "inclination_deg": 53.2164,
      "raan_deg": 86.0156,
      "arg_perigee_deg": 91.5945,
      "mean_anomaly_deg": 268.5194,
      "mean_motion_rev_day": 15.08833237
    },
    {
      "epoch": "2026-04-07T16:14:31.143840Z",
      "apogee_km": 540.6665235048076,
      "perigee_km": 538.8319000814399,
      "latitude_deg": 1.649313061840619e-05,
      "longitude_deg": 4.057123651185595,
      "height_km": 540.7014482270015,
      "semi_major_axis_km": 6917.886211793124,
      "eccentricity": 0.0001326,
      "inclination_deg": 53.2167,
      "raan_deg": 83.6371,
      "arg_perigee_deg": 93.5349,
      "mean_anomaly_deg": 266.5795,
      "mean_motion_rev_day": 15.08838095
    },
    {
      "epoch": "2026-04-08T06:32:59.058528Z",
      "apogee_km": 540.6454856739656,
      "perigee_km": 538.8213815980243,
      "latitude_deg": 2.1344554274240842e-06,
      "longitude_deg": 146.1767014037483,
      "height_km": 540.6807846431876,
      "semi_major_axis_km": 6917.870433635994,
      "eccentricity": 0.00013184,
      "inclination_deg": 53.2168,
      "raan_deg": 80.9606,
      "arg_perigee_deg": 93.2463,
      "mean_anomaly_deg": 266.868,
      "mean_motion_rev_day": 15.08843257
    },
    {
      "epoch": "2026-04-09T15:56:04.560288Z",
      "apogee_km": 540.6484068061982,
      "perigee_km": 538.8151715770618,
      "latitude_deg": -4.005462668944524e-05,
      "longitude_deg": -2.213325690544483,
      "height_km": 540.6988213382733,
      "semi_major_axis_km": 6917.86878919163,
      "eccentricity": 0.0001325,
      "inclination_deg": 53.2154,
      "raan_deg": 74.7146,
      "arg_perigee_deg": 94.4725,
      "mean_anomaly_deg": 265.6418,
      "mean_motion_rev_day": 15.08843795
    },
    {
      "epoch": "2026-04-10T04:39:09.758880Z",
      "apogee_km": 540.6883566823071,
      "perigee_km": 538.7891230766818,
      "latitude_deg": -2.0432620333490647e-05,
      "longitude_deg": 164.11401241227378,
      "height_km": 540.677524987781,
      "semi_major_axis_km": 6917.875739879494,
      "eccentricity": 0.00013727,
      "inclination_deg": 53.2154,
      "raan_deg": 72.3359,
      "arg_perigee_deg": 92.6137,
      "mean_anomaly_deg": 267.5012,
      "mean_motion_rev_day": 15.08841521
    },
    {
      "epoch": "2026-04-11T07:40:42.371904Z",
      "apogee_km": 540.7097543139671,
      "perigee_km": 538.7367805656932,
      "latitude_deg": -2.192883438834046e-05,
      "longitude_deg": 112.56341415779214,
      "height_km": 540.5651551602473,
      "semi_major_axis_km": 6917.86026743983,
      "eccentricity": 0.0001426,
      "inclination_deg": 53.2163,
      "raan_deg": 67.2811,
      "arg_perigee_deg": 86.8842,
      "mean_anomaly_deg": 273.2313,
      "mean_motion_rev_day": 15.08846583
    },
    {
      "epoch": "2026-04-13T05:46:53.791104Z",
      "apogee_km": 540.7165078489961,
      "perigee_km": 538.7727214729084,
      "latitude_deg": 5.206614150775648e-05,
      "longitude_deg": 130.4986977536204,
      "height_km": 540.5470820218145,
      "semi_major_axis_km": 6917.881614660952,
      "eccentricity": 0.00014049,
      "inclination_deg": 53.2173,
      "raan_deg": 58.6573,
      "arg_perigee_deg": 84.499,
      "mean_anomaly_deg": 275.6163,
      "mean_motion_rev_day": 15.08839599
    },
    {
      "epoch": "2026-04-14T07:13:04.120896Z",
      "apogee_km": 540.7291670814002,
      "perigee_km": 538.7730650377034,
      "latitude_deg": -3.6131175936450525e-05,
      "longitude_deg": 103.15346455199692,
      "height_km": 540.5577107370976,
      "semi_major_axis_km": 6917.888116059551,
      "eccentricity": 0.00014138,
      "inclination_deg": 53.2178,
      "raan_deg": 53.8998,
      "arg_perigee_deg": 84.7735,
      "mean_anomaly_deg": 275.3418,
      "mean_motion_rev_day": 15.08837472
    }
  ]
}